H1 CPF  1  MCC 2022  8  4 13  7161 larets
H2  0304206 5557    27944 2022 08 03 23 45 00 2022 08 08 23 57 00   180 1 1  0 0 0
H9
10 0 59797 10620.000000 0     -6427379.527      1718661.981     -2372304.219
10 0 59797 10800.000000 0     -5805016.174      1846031.813     -3581101.736
10 0 59797 10980.000000 0     -4969651.172      1887236.413     -4658929.019
10 0 59797 11160.000000 0     -3954360.617      1835772.134     -5566736.962
10 0 59797 11340.000000 0     -2798695.720      1689441.777     -6271826.776
10 0 59797 11520.000000 0     -1547089.213      1450550.497     -6748951.677
10 0 59797 11700.000000 0      -247127.600      1125903.614     -6981133.642
10 0 59797 11880.000000 0      1052236.304       726611.040     -6960187.395
10 0 59797 12060.000000 0      2302478.478       267708.842     -6686966.680
10 0 59797 12240.000000 0      3457267.254      -232394.691     -6171324.631
10 0 59797 12420.000000 0      4474139.802      -752631.039     -5431787.325
10 0 59797 12600.000000 0      5316045.558     -1270122.260     -4494949.880
10 0 59797 12780.000000 0      5952715.887     -1761146.268     -3394597.597
10 0 59797 12960.000000 0      6361801.928     -2202181.150     -2170556.625
10 0 59797 13140.000000 0      6529726.303     -2570986.034      -867299.482
10 0 59797 13320.000000 0      6452200.010     -2847666.852       467653.549
10 0 59797 13500.000000 0      6134370.640     -3015672.901      1785480.073
10 0 59797 13680.000000 0      5590582.277     -3062669.866      3037879.365
10 0 59797 13860.000000 0      4843748.473     -2981240.119      4178888.613
10 0 59797 14040.000000 0      3924374.431     -2769369.465      5166605.775
10 0 59797 14220.000000 0      2869282.182     -2430701.159      5964751.064
10 0 59797 14400.000000 0      1720095.165     -1974540.329      6544003.332
10 0 59797 14580.000000 0       521562.306     -1415611.004      6883064.387
10 0 59797 14760.000000 0      -680209.206      -773577.313      6969425.182
10 0 59797 14940.000000 0     -1839541.680       -72345.039      6799815.827
10 0 59797 15120.000000 0     -2912933.671       660832.460      6380334.802
10 0 59797 15300.000000 0     -3860711.071      1396416.490      5726253.214
10 0 59797 15480.000000 0     -4648528.962      2103777.038      4861493.095
10 0 59797 15660.000000 0     -5248669.138      2752477.480      3817782.239
10 0 59797 15840.000000 0     -5641071.911      3313597.059      2633500.479
10 0 59797 16020.000000 0     -5814054.372      3761028.944      1352257.240
10 0 59797 16200.000000 0     -5764679.799      4072692.322        21245.782
10 0 59797 16380.000000 0     -5498748.717      4231587.815     -1310558.036
10 0 59797 16560.000000 0     -5030415.991      4226641.624     -2594266.507
10 0 59797 16740.000000 0     -4381450.570      4053291.195     -3782935.667
10 0 59797 16920.000000 0     -3580185.455      3713782.633     -4833308.679
10 0 59797 17100.000000 0     -2660229.538      3217177.574     -5707371.828
10 0 59797 17280.000000 0     -1659019.639      2579082.263     -6373673.945
10 0 59797 17460.000000 0      -616278.475      1821118.199     -6808381.427
10 0 59797 17640.000000 0       427553.931       970162.057     -6996042.990
10 0 59797 17820.000000 0      1432854.754        57391.016     -6930067.477
10 0 59797 18000.000000 0      2362281.155      -882839.254     -6612917.461
10 0 59797 18180.000000 0      3182116.918     -1814253.208     -6056014.311
10 0 59797 18360.000000 0      3863469.020     -2700013.563     -5279365.009
10 0 59797 18540.000000 0      4383286.140     -3504148.924     -4310912.003
10 0 59797 18720.000000 0      4725158.016     -4193002.700     -3185600.178
10 0 59797 18900.000000 0      4879865.956     -4736643.185     -1944184.506
10 0 59797 19080.000000 0      4845658.981     -5110178.494      -631798.373
10 0 59797 19260.000000 0      4628227.728     -5294909.378       703677.143
10 0 59797 19440.000000 0      4240368.029     -5279251.732      2013380.825
10 0 59797 19620.000000 0      3701345.171     -5059373.955      3249299.653
10 0 59797 19800.000000 0      3035988.264     -4639513.731      4366071.829
10 0 59797 19980.000000 0      2273562.998     -4031955.149      5322687.019
10 0 59797 20160.000000 0      1446481.570     -3256666.950      6084010.853
10 0 59797 20340.000000 0       588912.161     -2340621.177      6622075.961
10 0 59797 20520.000000 0      -264646.223     -1316826.636      6917092.981
10 0 59797 20700.000000 0     -1080759.080      -223120.104      6958161.213
10 0 59797 20880.000000 0     -1828372.181       899245.635      6743666.599
10 0 59797 21060.000000 0     -2480004.422      2007167.862      6281353.466
10 0 59797 21240.000000 0     -3012775.726      3057361.214      5588068.408
10 0 59797 21420.000000 0     -3409235.346      4008071.975      4689180.014
10 0 59797 21600.000000 0     -3657961.628      4820776.830      3617679.672
10 0 59797 21780.000000 0     -3753903.247      5461795.485      2412980.135
10 0 59797 21960.000000 0     -3698441.820      5903736.925      1119446.095
10 0 59797 22140.000000 0     -3499171.374      6126702.612      -215282.630
10 0 59797 22320.000000 0     -3169407.089      6119189.173     -1542108.446
10 0 59797 22500.000000 0     -2727443.612      5878629.541     -2812356.959
10 0 59797 22680.000000 0     -2195601.391      5411541.731     -3979616.655
10 0 59797 22860.000000 0     -1599128.908      4733297.402     -5001449.145
10 0 59797 23040.000000 0      -965022.975      3867533.674     -5840906.127
10 0 59797 23220.000000 0      -320826.407      2845254.902     -6467807.507
10 0 59797 23400.000000 0       306546.037      1703665.126     -6859748.550
10 0 59797 23580.000000 0       891900.941       484791.290     -7002815.108
10 0 59797 23760.000000 0      1412744.243      -766051.264     -6892011.729
10 0 59797 23940.000000 0      1850115.351     -2001906.493     -6531399.502
10 0 59797 24120.000000 0      2189255.218     -3175887.745     -5933951.401
10 0 59797 24300.000000 0      2420095.903     -4242913.240     -5121134.211
10 0 59797 24480.000000 0      2537556.116     -5161422.475     -4122204.790
10 0 59797 24660.000000 0      2541628.974     -5895002.163     -2973230.350
10 0 59797 24840.000000 0      2437257.937     -6413869.310     -1715853.355
10 0 59797 25020.000000 0      2234001.079     -6696141.073      -395821.320
10 0 59797 25200.000000 0      1945492.529     -6728816.420       938675.346
10 0 59797 25380.000000 0      1588722.740     -6508408.567      2238786.911
10 0 59797 25560.000000 0      1183172.988     -6041190.381      3456837.026
10 0 59797 25740.000000 0       749845.717     -5343028.807      4548114.622
10 0 59797 25920.000000 0       310244.102     -4438825.334      5472545.401
10 0 59797 26100.000000 0      -114648.263     -3361588.622      6196179.222
10 0 59797 26280.000000 0      -505334.122     -2151180.398      6692433.001
10 0 59797 26460.000000 0      -844673.413      -852803.520      6943047.075
10 0 59797 26640.000000 0     -1118622.854       484706.394      6938744.228
10 0 59797 26820.000000 0     -1316817.177      1810734.542      6679572.163
10 0 59797 27000.000000 0     -1432968.207      3074817.605      6174917.044
10 0 59797 27180.000000 0     -1465069.460      4228586.644      5443188.786
10 0 59797 27360.000000 0     -1415398.527      5227656.388      4511181.493
10 0 59797 27540.000000 0     -1290316.722      6033391.565      3413117.574
10 0 59797 27720.000000 0     -1099874.244      6614469.488      2189396.409
10 0 59797 27900.000000 0      -857238.991      6948168.521       885085.916
10 0 59797 28080.000000 0      -577967.605      7021305.293      -451788.108
10 0 59797 28260.000000 0      -279162.791      6830772.479     -1772075.854
10 0 59797 28440.000000 0        21436.086      6383639.625     -3027381.436
10 0 59797 28620.000000 0       306374.608      5696818.093     -4171879.839
10 0 59797 28800.000000 0       559372.120      4796332.046     -5163998.195
10 0 59797 28980.000000 0       766135.430      3716238.554     -5967898.274
10 0 59797 29160.000000 0       915057.301      2497260.250     -6554709.893
10 0 59797 29340.000000 0       997770.064      1185201.407     -6903484.453
10 0 59797 29520.000000 0      1009537.097      -170779.084     -7001858.878
10 0 59797 29700.000000 0       949471.238     -1519981.876     -6846431.917
10 0 59797 29880.000000 0       820575.011     -2812011.718     -6442850.211
10 0 59797 30060.000000 0       629605.477     -3998602.767     -5805619.383
10 0 59797 30240.000000 0       386764.626     -5035389.638     -4957635.023
10 0 59797 30420.000000 0       105226.541     -5883562.065     -3929430.659
10 0 59797 30600.000000 0      -199485.844     -6511350.187     -2758154.060
10 0 59797 30780.000000 0      -510251.643     -6895276.091     -1486285.621
10 0 59797 30960.000000 0      -809199.440     -7021110.649      -160129.487
10 0 59797 31140.000000 0     -1078611.868     -6884473.557      1171874.438
10 0 59797 31320.000000 0     -1301842.882     -6491038.406      2460946.814
10 0 59797 31500.000000 0     -1464199.269     -5856323.114      3659800.139
10 0 59797 31680.000000 0     -1553736.018     -5005067.077      4724419.008
10 0 59797 31860.000000 0     -1561924.082     -3970231.227      5615703.792
10 0 59797 32040.000000 0     -1484160.323     -2791677.687      6300919.136
10 0 59797 32220.000000 0     -1320090.843     -1514585.694      6754889.134
10 0 59797 32400.000000 0     -1073735.000      -187687.856      6960903.634
10 0 59797 32580.000000 0      -753410.910      1138610.483      6911320.288
10 0 59797 32760.000000 0      -371457.805      2414160.660      6607847.820
10 0 59797 32940.000000 0        56239.529      3590985.138      6061502.141
10 0 59797 33120.000000 0       510904.562      4625110.319      5292233.099
10 0 59797 33300.000000 0       971678.843      5478255.374      4328227.126
10 0 59797 33480.000000 0      1416557.694      6119310.110      3204895.855
99
